SL-12 R/B(2)            
1 15772U 85042D   26178.51116639  .00000121  00000+0  75761-4 0  9990
2 15772  71.1065 215.7044 0036836 312.2897 151.5790 14.22007629130000
SL-14 R/B               
1 15945U 85069B   26178.53540922  .00000403  00000+0  42614-4 0  9993
2 15945  82.5274 281.6338 0018651 183.7453 176.3627 14.86522925189157
SL-16 R/B               
1 16182U 85097B   26178.51155589  .00000174  00000+0  11090-3 0  9995
2 16182  71.0034 269.3420 0005326  88.8535 358.8235 14.16613661102781
SL-14 R/B               
1 16496U 86006B   26178.41471132  .00000502  00000+0  50695-4 0  9998
2 16496  82.5267 156.4884 0074686 268.8789  90.3870 14.86954582165510
COSMOS 1743             
1 16719U 86034A   26178.42552558  .00053398  00000+0  48261-3 0  9996
2 16719  82.5273 317.8386 0004564 233.8879 126.1960 15.67885361197392
SL-14 R/B               
1 16792U 86046B   26178.52497535  .00000424  00000+0  45920-4 0  9996
2 16792  82.4822 336.4059 0022036 222.1652 137.7870 14.85678019142713
SL-14 R/B               
1 16882U 86055B   26178.50967737  .00000377  00000+0  40548-4 0  9998
2 16882  82.5198  23.4270 0018107 333.1419  49.5251 14.85729452135674
AJISAI (EGS)            
1 16908U 86061A   26178.51377705 -.00000116  00000+0 -13023-3 0  9995
2 16908  50.0084 115.6406 0011156 206.7971 306.5753 12.44516748481679
SL-14 R/B               
1 17567U 87024B   26178.51846484  .00000397  00000+0  42416-4 0  9990
2 17567  82.5281 349.5385 0016722 255.8289 104.1070 14.86219804104447
COSMOS 1833             
1 17589U 87027A   26178.51435662  .00000278  00000+0  17410-3 0  9992
2 17589  70.9203  95.1621 0023180  37.8441 322.4304 14.13057757 25834
SL-16 R/B               
1 17590U 87027B   26178.38024536  .00000257  00000+0  15123-3 0  9999
2 17590  71.0033  45.3493 0006754 301.3824  58.6639 14.17172958 30880
SL-14 R/B               
1 17912U 87038B   26178.50259220  .00000352  00000+0  37851-4 0  9992
2 17912  82.5003 193.3556 0019815 157.3517 202.8578 14.85450815 95530
COSMOS 1844             
1 17973U 87041A   26178.36063944  .00000219  00000+0  13837-3 0  9992
2 17973  70.8968 162.8475 0032351 220.6082 139.2627 14.14568903 19094
SL-14 R/B               
1 18153U 87055B   26178.46018713  .00000366  00000+0  39211-4 0  9991
2 18153  82.4987 245.5453 0020914  14.9795 345.2036 14.85717258 86237
COSMOS 1867             
1 18187U 87060A   26178.19319721 -.00000042  00000+0  21822-4 0  9998
2 18187  65.0115   0.0355 0016741 282.1266  77.7943 14.31516809 35614
SL-14 R/B               
1 18749U 88001B   26178.46292321  .00000356  00000+0  38269-4 0  9994
2 18749  82.5134  92.1069 0016730 232.5021 127.4675 14.85616162 58323
COSMOS 1933             
1 18958U 88020A   26178.38162035  .00004443  00000+0  21229-3 0  9994
2 18958  82.5124 142.3394 0004662 152.7417 207.4063 15.18776848 66870
SL-3 R/B                
1 19046U 88032B   26178.50695441  .00004000  00000+0  18267-3 0  9999
2 19046  97.5254 161.5374 0024633 206.9899 153.0057 15.20911317 68793
SL-16 R/B               
1 19120U 88039B   26178.47878765 -.00000138  00000+0 -42493-4 0  9996
2 19120  71.0128 196.3963 0021634 177.5504 182.5732 14.19630741973964
COSMOS 1953             
1 19210U 88050A   26178.35193389  .00007563  00000+0  25789-3 0  9993
2 19210  82.5077  47.7836 0012452  95.4929 264.7732 15.30112715 54546
SL-8 R/B                
1 19257U 88053B   26178.49379292  .00000160  00000+0  60151-4 0  9990
2 19257  74.0478 270.0591 0019244  61.5937 309.5663 14.38971088992394
COSMOS 1975             
1 19573U 88093A   26178.49194679  .00006740  00000+0  23441-3 0  9999
2 19573  82.5186   7.3350 0012199 137.5539 222.6647 15.29454547 36183
SL-14 R/B               
1 19574U 88093B   26178.44307977  .00000404  00000+0  43479-4 0  9997
2 19574  82.5318 299.0162 0021555  38.4456  27.1492 14.85749087 17312
SL-16 R/B               
1 19650U 88102B   26178.52977627  .00000251  00000+0  15068-3 0  9999
2 19650  71.0003 280.3768 0015235 210.8055 149.2175 14.16167314942441
INTERCOSMOS 24          
1 20261U 89080A   26178.34116770  .00000731  00000+0  20812-3 0  9995
2 20261  82.6054  33.0376 1188095  38.3678 329.6141 12.59676007680606
SL-14 R/B               
1 20262U 89080C   26178.48204685  .00000143  00000+0  43028-4 0  9996
2 20262  82.5943 102.6939 1228406 293.8370  53.8782 12.50574572673872
DELTA 1 R/B             
1 20323U 89089B   26178.49624117  .00000306  00000+0  83946-4 0  9994
2 20323  97.0633   8.4048 0070076 134.7585 225.9345 14.50737387911654
ARIANE 40 R/B           
1 20443U 90005H   26178.39843830  .00000241  00000+0  90028-4 0  9998
2 20443  98.2956 235.6970 0009140 229.6201 130.4191 14.39932410908598
DELTA 2 R/B(1)          
1 20453U 90008B   26178.36713399  .00094808  00000+0  65409-3 0  9991
2 20453  35.5987 167.4771 0064473 210.8595 148.8347 15.70403728943301
COSMOS 2058             
1 20465U 90010A   26178.39296078  .00003212  00000+0  18495-3 0  9992
2 20465  82.4694 299.2904 0008641 320.2289  39.8307 15.12078538958813
SL-14 R/B               
1 20466U 90010B   26178.41918606  .00000389  00000+0  44232-4 0  9995
2 20466  82.5020 164.3354 0018386 300.7138  59.2265 14.83652568944757
