OBJECT_NAME,OBJECT_ID,EPOCH,MEAN_MOTION,ECCENTRICITY,INCLINATION,RA_OF_ASC_NODE,ARG_OF_PERICENTER,MEAN_ANOMALY,EPHEMERIS_TYPE,CLASSIFICATION_TYPE,NORAD_CAT_ID,ELEMENT_SET_NO,REV_AT_EPOCH,BSTAR,MEAN_MOTION_DOT,MEAN_MOTION_DDOT
SL-12 R/B(2),1985-042D,2026-06-27T12:16:04.776096,14.22007629,.0036836,71.1065,215.7044,312.2897,151.5790,0,U,15772,999,13000,.75761E-4,.121E-5,0
SL-14 R/B,1985-069B,2026-06-27T12:50:59.356608,14.86522925,.0018651,82.5274,281.6338,183.7453,176.3627,0,U,15945,999,18915,.42614E-4,.403E-5,0
SL-16 R/B,1985-097B,2026-06-27T12:16:38.428896,14.16613661,.0005326,71.0034,269.3420,88.8535,358.8235,0,U,16182,999,10278,.1109E-3,.174E-5,0
SL-14 R/B,1986-006B,2026-06-27T09:57:11.058048,14.86954582,.0074686,82.5267,156.4884,268.8789,90.3870,0,U,16496,999,16551,.50695E-4,.502E-5,0
COSMOS 1743,1986-034A,2026-06-27T10:12:45.410112,15.67885361,.0004564,82.5273,317.8386,233.8879,126.1960,0,U,16719,999,19739,.48261E-3,.53398E-3,0
SL-14 R/B,1986-046B,2026-06-27T12:35:57.870240,14.85678019,.0022036,82.4822,336.4059,222.1652,137.7870,0,U,16792,999,14271,.4592E-4,.424E-5,0
SL-14 R/B,1986-055B,2026-06-27T12:13:56.124768,14.85729452,.0018107,82.5198,23.4270,333.1419,49.5251,0,U,16882,999,13567,.40548E-4,.377E-5,0
AJISAI (EGS),1986-061A,2026-06-27T12:19:50.337120,12.44516748,.0011156,50.0084,115.6406,206.7971,306.5753,0,U,16908,999,48167,-.13023E-3,-.116E-5,0
SL-14 R/B,1987-024B,2026-06-27T12:26:35.362176,14.86219804,.0016722,82.5281,349.5385,255.8289,104.1070,0,U,17567,999,10444,.42416E-4,.397E-5,0
COSMOS 1833,1987-027A,2026-06-27T12:20:40.411968,14.13057757,.002318,70.9203,95.1621,37.8441,322.4304,0,U,17589,999,2583,.1741E-3,.278E-5,0
SL-16 R/B,1987-027B,2026-06-27T09:07:33.199104,14.17172958,.0006754,71.0033,45.3493,301.3824,58.6639,0,U,17590,999,3088,.15123E-3,.257E-5,0
SL-14 R/B,1987-038B,2026-06-27T12:03:43.966080,14.85450815,.0019815,82.5003,193.3556,157.3517,202.8578,0,U,17912,999,9553,.37851E-4,.352E-5,0
COSMOS 1844,1987-041A,2026-06-27T08:39:19.247616,14.14568903,.0032351,70.8968,162.8475,220.6082,139.2627,0,U,17973,999,1909,.13837E-3,.219E-5,0
SL-14 R/B,1987-055B,2026-06-27T11:02:40.168032,14.85717258,.0020914,82.4987,245.5453,14.9795,345.2036,0,U,18153,999,8623,.39211E-4,.366E-5,0
COSMOS 1867,1987-060A,2026-06-27T04:38:12.238944,14.31516809,.00167419,65.0115,0.0355,282.1266,77.7943,0,U,18187,999,3561,.21821822E-4,-.42E-6,0
SL-14 R/B,1988-001B,2026-06-27T11:06:36.565344,14.85616162,.001673,82.5134,92.1069,232.5021,127.4675,0,U,18749,999,5832,.38269E-4,.356E-5,0
COSMOS 1933,1988-020A,2026-06-27T09:09:31.998240,15.18776848,.0004662,82.5124,142.3394,152.7417,207.4063,0,U,18958,999,6687,.21229E-3,.4443E-4,0
SL-3 R/B,1988-032B,2026-06-27T12:10:00.861024,15.20911317,.0024633,97.5254,161.5374,206.9899,153.0057,0,U,19046,999,6879,.18267E-3,.4E-4,0
SL-16 R/B,1988-039B,2026-06-27T11:29:27.252960,14.19630741,.0021634,71.0128,196.3963,177.5504,182.5732,0,U,19120,999,97396,-.42493E-4,-.138E-5,0
COSMOS 1953,1988-050A,2026-06-27T08:26:47.088096,15.30112715,.0012452,82.5077,47.7836,95.4929,264.7732,0,U,19210,999,5454,.25789E-3,.7563E-4,0
SL-8 R/B,1988-053B,2026-06-27T11:51:03.708288,14.38971088,.0019244,74.0478,270.0591,61.5937,309.5663,0,U,19257,999,99239,.60151E-4,.16E-5,0
COSMOS 1975,1988-093A,2026-06-27T11:48:24.202656,15.29454547,.0012199,82.5186,7.3350,137.5539,222.6647,0,U,19573,999,3618,.23441E-3,.674E-4,0
SL-14 R/B,1988-093B,2026-06-27T10:38:02.092128,14.85749087,.0021555,82.5318,299.0162,38.4456,27.1492,0,U,19574,999,1731,.43479E-4,.404E-5,0
SL-16 R/B,1988-102B,2026-06-27T12:42:52.669728,14.16167314,.0015235,71.0003,280.3768,210.8055,149.2175,0,U,19650,999,94244,.15068E-3,.251E-5,0
INTERCOSMOS 24,1989-080A,2026-06-27T08:11:16.889280,12.59676007,.1188095,82.6054,33.0376,38.3678,329.6141,0,U,20261,999,68060,.20812E-3,.731E-5,0
SL-14 R/B,1989-080C,2026-06-27T11:34:08.847840,12.50574572,.1228406,82.5943,102.6939,293.8370,53.8782,0,U,20262,999,67387,.43028E-4,.143E-5,0
DELTA 1 R/B,1989-089B,2026-06-27T11:54:35.237088,14.50737387,.0070076,97.0633,8.4048,134.7585,225.9345,0,U,20323,999,91165,.83946E-4,.306E-5,0
ARIANE 40 R/B,1990-005H,2026-06-27T09:33:45.069120,14.39932410,.000914,98.2956,235.6970,229.6201,130.4191,0,U,20443,999,90859,.90028E-4,.241E-5,0
DELTA 2 R/B(1),1990-008B,2026-06-27T08:48:40.376736,15.70403728,.0064473,35.5987,167.4771,210.8595,148.8347,0,U,20453,999,94330,.65409E-3,.94808E-3,0
COSMOS 2058,1990-010A,2026-06-27T09:25:51.811392,15.12078538,.0008641,82.4694,299.2904,320.2289,39.8307,0,U,20465,999,95881,.18495E-3,.3212E-4,0
SL-14 R/B,1990-010B,2026-06-27T10:03:37.675584,14.83652568,.0018386,82.5020,164.3354,300.7138,59.2265,0,U,20466,999,94475,.44232E-4,.389E-5,0
